GLOBALSTAR M057         
1 25943U 99058A   25210.79415577 -.00000094  00000+0 -82032-5 0  9993
2 25943  51.9957 227.2873 0002678 104.3444 255.7703 12.24827415172156
GLOBALSTAR M059         
1 25944U 99058B   25210.91166159 -.00000069  00000+0  21370-3 0  9994
2 25944  52.0019  91.5900 0001279  45.4411  41.4707 11.99980014579179
GLOBALSTAR M056         
1 25945U 99058C   25210.90593780 -.00000109  00000+0 -24767-3 0  9997
2 25945  51.9965  92.4686 0000479 316.0073 127.1325 12.04780171167777
GLOBALSTAR M031         
1 25946U 99058D   25210.76211552 -.00000098  00000+0 -79368-4 0  9991
2 25946  51.9995 342.6437 0000703 242.5212 265.8245 12.16039798169726
GLOBALSTAR M039         
1 25961U 99062A   25210.76383868 -.00000081  00000+0  12710-3 0  9991
2 25961  51.9837 139.0358 0003061  75.2509 284.8697 12.62329927185590
GLOBALSTAR M034         
1 25962U 99062B   25210.85727546 -.00000125  00000+0 -69884-3 0  9991
2 25962  51.9861 260.4723 0014233 122.9249  49.0290 11.79447018143422
GLOBALSTAR M029         
1 25963U 99062C   25210.65668030 -.00000055  00000+0  39003-3 0  9993
2 25963  51.9831 340.2797 0002597 185.3541 187.5105 11.99898812174225
GLOBALSTAR M061         
1 25964U 99062D   25210.94203258 -.00000090  00000+0 -16086-3 0  9999
2 25964  51.9798  84.8521 0006753  45.9799  55.4282 11.76776266126216
